IDEFIX & ARIANE 42P R/B 
1 27422U 02021B   25359.79875209  .00000328  00000+0  14121-3 0  9997
2 27422  98.5803 294.3211 0012732  48.3783 311.8489 14.30959485233451
AQUA                    
1 27424U 02022A   25358.80455341  .00000926  00000+0  19561-3 0  9999
2 27424  98.4055 319.8810 0001809 102.1365 317.5475 14.61757572257795
CZ-4B R/B               
1 27432U 02024C   25359.74106375  .00000044  00000+0  45768-4 0  9994
2 27432  98.8980  48.4664 0049384 232.2758 237.9035 14.14530571218787
MIDORI II (ADEOS-II)    
1 27597U 02056A   25359.87699894  .00000297  00000+0  13473-3 0  9995
2 27597  98.7656 312.9034 0000856 145.9598 214.1638 14.29214255199756
H-2A R/B                
1 27601U 02056E   25359.80131543  .00000421  00000+0  16225-3 0  9993
2 27601  98.3086 318.0392 0070861  22.6991  38.3522 14.33687298203525
CZ-4B R/B               
1 28059U 03049C   25359.86876515  .00000442  00000+0  11295-3 0  9990
2 28059  98.6799 346.9292 0049388  96.8146 263.8673 14.54921629175860
CZ-2C R/B               
1 28222U 04012C   25359.73006509  .00038919  00000+0  54618-3 0  9993
2 28222  97.7393  53.4314 0016663 219.5735 140.4303 15.56480106192744
SL-16 R/B               
1 28353U 04021B   25359.42066674  .00000162  00000+0  10931-3 0  9992
2 28353  71.0004  28.3537 0004604 178.7045 181.4090 14.14579851112337
CZ-4B R/B               
1 28415U 04035C   25359.66335793  .00008473  00000+0  31231-3 0  9992
2 28415  97.3593  29.8350 0031764 229.4184 130.4290 15.27577878168603
CZ-2C R/B               
1 28480U 04046B   25359.79078110  .00000299  00000+0  12618-3 0  9993
2 28480  98.1997 274.3581 0139859  13.9108 346.5865 14.26948428 97960
ARIANE 5 R/B            
1 28499U 04049H   25359.92639005  .00001302  00000+0  15044-3 0  9999
2 28499  98.2529 160.6812 0083535 229.6515 129.7383 14.85045368134844
CZ-2D R/B               
1 28738U 05024B   25359.92612693  .00031196  00000+0  48371-3 0  9996
2 28738  97.3631   7.7251 0003434 310.7249  49.3706 15.53951368128300
